{"type": "Feature", "properties": {}, "geometry": {"type": "LineString", "coordinates": [[-117.65, 33.43808680578662], [-117.596303, 33.390448], [-117.508844, 33.335205], [-117.361914, 33.165943], [-117.322161, 33.108501], [-117.298075, 33.035904], [-117.286041, 33.023871], [-117.279565, 33.007224], [-117.27477, 32.993476], [-117.258066, 32.908983], [-117.253641, 32.885081], [-117.259874, 32.854067], [-117.266039, 32.847035], [-117.273789, 32.851146], [-117.283597, 32.837654], [-117.278793, 32.822812], [-117.257556, 32.784245], [-117.253877, 32.76352], [-117.254727, 32.74645], [-117.257476, 32.701728], [-117.255279, 32.691392], [-117.24528, 32.674584], [-117.236562, 32.669623], [-117.237834, 32.707223], [-117.224244, 32.718641], [-117.209858, 32.725284], [-117.174638, 32.726732], [-117.177343, 32.715031], [-117.166575, 32.706773], [-117.146325, 32.694262], [-117.133209, 32.689846], [-117.119017, 32.67061], [-117.119892, 32.652634], [-117.102311, 32.620468], [-117.103384, 32.60681], [-117.115089, 32.600262], [-117.124086, 32.606766], [-117.131278, 32.630991], [-117.142797, 32.653116], [-117.155853, 32.672367], [-117.164174, 32.683783], [-117.168058, 32.698805], [-117.187859, 32.705936], [-117.190956, 32.713699], [-117.205814, 32.713403], [-117.22003, 32.706596], [-117.226186, 32.697207], [-117.223975, 32.684714], [-117.188385, 32.682685], [-117.166371, 32.669501], [-117.14981, 32.646308], [-117.137007, 32.615761], [-117.133949, 32.592896], [-117.132192, 32.568061], [-117.126129, 32.539496], [-117.12490687708916, 32.53]]}}
